[
    {
        "Altitude(m)": 716681.5568943416,
        "Argument of Periapsis(deg)": 0.010251109067964361,
        "Eccentricity": 0.0,
        "Inclination(deg)": 45.0,
        "Latitude(deg)": -42.252963175455776,
        "Longitude(deg)": -140.3229059624536,
        "Mean Anomaly(deg)": 288.56169498273266,
        "RAAN(deg)": 24.990323252687617,
        "Satellite Name": "Constellation 1 127",
        "Satellite Number": 127,
        "Semi-Major Axis(m)": 7083131.272910544,
        "Time(s)": 171
    },
    {
        "Altitude(m)": 716673.9229267469,
        "Argument of Periapsis(deg)": 0.010311057074209765,
        "Eccentricity": 0.0,
        "Inclination(deg)": 45.0,
        "Latitude(deg)": -42.23455071275724,
        "Longitude(deg)": -140.24925925021307,
        "Mean Anomaly(deg)": 288.62239612298265,
        "RAAN(deg)": 24.99026666352205,
        "Satellite Name": "Constellation 1 127",
        "Satellite Number": 127,
        "Semi-Major Axis(m)": 7083131.272910544,
        "Time(s)": 172
    },
    {
        "Altitude(m)": 716666.2669960354,
        "Argument of Periapsis(deg)": 0.010371005080455171,
        "Eccentricity": 0.0,
        "Inclination(deg)": 45.0,
        "Latitude(deg)": -42.21608551273246,
        "Longitude(deg)": -140.1756576815388,
        "Mean Anomaly(deg)": 288.6830972632326,
        "RAAN(deg)": 24.990210074356476,
        "Satellite Name": "Constellation 1 127",
        "Satellite Number": 127,
        "Semi-Major Axis(m)": 7083131.272910544,
        "Time(s)": 173
    },
    {
        "Altitude(m)": 716658.589130285,
        "Argument of Periapsis(deg)": 0.010430953086700577,
        "Eccentricity": 0.0,
        "Inclination(deg)": 45.0,
        "Latitude(deg)": -42.19756763929144,
        "Longitude(deg)": -140.10210132968786,
        "Mean Anomaly(deg)": 288.7437984034824,
        "RAAN(deg)": 24.99015348519091,
        "Satellite Name": "Constellation 1 127",
        "Satellite Number": 127,
        "Semi-Major Axis(m)": 7083131.272910544,
        "Time(s)": 174
    },
    {
        "Altitude(m)": 716650.8893576565,
        "Argument of Periapsis(deg)": 0.010490901092945983,
        "Eccentricity": 0.0,
        "Inclination(deg)": 45.0,
        "Latitude(deg)": -42.17899715643021,
        "Longitude(deg)": -140.02859026736832,
        "Mean Anomaly(deg)": 288.80449954373233,
        "RAAN(deg)": 24.99009689602534,
        "Satellite Name": "Constellation 1 127",
        "Satellite Number": 127,
        "Semi-Major Axis(m)": 7083131.272910544,
        "Time(s)": 175
    },
    {
        "Altitude(m)": 716643.1677063847,
        "Argument of Periapsis(deg)": 0.010550849099191389,
        "Eccentricity": 0.0,
        "Inclination(deg)": 45.0,
        "Latitude(deg)": -42.16037412822997,
        "Longitude(deg)": -139.95512456673907,
        "Mean Anomaly(deg)": 288.86520068398227,
        "RAAN(deg)": 24.990040306859772,
        "Satellite Name": "Constellation 1 127",
        "Satellite Number": 127,
        "Semi-Major Axis(m)": 7083131.272910544,
        "Time(s)": 176
    },
    {
        "Altitude(m)": 716635.4242047821,
        "Argument of Periapsis(deg)": 0.010610797105436795,
        "Eccentricity": 0.0,
        "Inclination(deg)": 45.0,
        "Latitude(deg)": -42.14169861885638,
        "Longitude(deg)": -139.88170429941147,
        "Mean Anomaly(deg)": 288.92590182423214,
        "RAAN(deg)": 24.9899837176942,
        "Satellite Name": "Constellation 1 127",
        "Satellite Number": 127,
        "Semi-Major Axis(m)": 7083131.272910544,
        "Time(s)": 177
    },
    {
        "Altitude(m)": 716627.6588812459,
        "Argument of Periapsis(deg)": 0.0106707451116822,
        "Eccentricity": 0.0,
        "Inclination(deg)": 45.0,
        "Latitude(deg)": -42.12297069255827,
        "Longitude(deg)": -139.80832970454614,
        "Mean Anomaly(deg)": 288.986602964482,
        "RAAN(deg)": 24.989927128528628,
        "Satellite Name": "Constellation 1 127",
        "Satellite Number": 127,
        "Semi-Major Axis(m)": 7083131.272910544,
        "Time(s)": 178
    },
    {
        "Altitude(m)": 716619.8717642522,
        "Argument of Periapsis(deg)": 0.010730693117927606,
        "Eccentricity": 0.0,
        "Inclination(deg)": 45.0,
        "Latitude(deg)": -42.10419041366794,
        "Longitude(deg)": -139.73500051646482,
        "Mean Anomaly(deg)": 289.0473041047319,
        "RAAN(deg)": 24.98987053936306,
        "Satellite Name": "Constellation 1 127",
        "Satellite Number": 127,
        "Semi-Major Axis(m)": 7083131.272910544,
        "Time(s)": 179
    },
    {
        "Altitude(m)": 716612.0628823513,
        "Argument of Periapsis(deg)": 0.01079064112417301,
        "Eccentricity": 0.0,
        "Inclination(deg)": 45.0,
        "Latitude(deg)": -42.08535784659865,
        "Longitude(deg)": -139.66171697323415,
        "Mean Anomaly(deg)": 289.1080052449818,
        "RAAN(deg)": 24.98981395019749,
        "Satellite Name": "Constellation 1 127",
        "Satellite Number": 127,
        "Semi-Major Axis(m)": 7083131.272910544,
        "Time(s)": 180
    },
    {
        "Altitude(m)": 716604.2322641733,
        "Argument of Periapsis(deg)": 0.010850589130418416,
        "Eccentricity": 0.0,
        "Inclination(deg)": 45.0,
        "Latitude(deg)": -42.066473055844995,
        "Longitude(deg)": -139.58847914427773,
        "Mean Anomaly(deg)": 289.16870638523176,
        "RAAN(deg)": 24.989757361031923,
        "Satellite Name": "Constellation 1 127",
        "Satellite Number": 127,
        "Semi-Major Axis(m)": 7083131.272910544,
        "Time(s)": 181
    },
    {
        "Altitude(m)": 716596.3799384292,
        "Argument of Periapsis(deg)": 0.01091053713666382,
        "Eccentricity": 0.0,
        "Inclination(deg)": 45.0,
        "Latitude(deg)": -42.04753610598162,
        "Longitude(deg)": -139.51528709847358,
        "Mean Anomaly(deg)": 289.22940752548163,
        "RAAN(deg)": 24.989700771866353,
        "Satellite Name": "Constellation 1 127",
        "Satellite Number": 127,
        "Semi-Major Axis(m)": 7083131.272910544,
        "Time(s)": 182
    },
    {
        "Altitude(m)": 716588.5059339048,
        "Argument of Periapsis(deg)": 0.010970485142909228,
        "Eccentricity": 0.0,
        "Inclination(deg)": 45.0,
        "Latitude(deg)": -42.028547061662415,
        "Longitude(deg)": -139.44214090415448,
        "Mean Anomaly(deg)": 289.2901086657315,
        "RAAN(deg)": 24.98964418270078,
        "Satellite Name": "Constellation 1 127",
        "Satellite Number": 127,
        "Semi-Major Axis(m)": 7083131.272910544,
        "Time(s)": 183
    },
    {
        "Altitude(m)": 716580.6102794661,
        "Argument of Periapsis(deg)": 0.011030433149154634,
        "Eccentricity": 0.0,
        "Inclination(deg)": 45.0,
        "Latitude(deg)": -42.009505987619754,
        "Longitude(deg)": -139.3690406291091,
        "Mean Anomaly(deg)": 289.35080980598144,
        "RAAN(deg)": 24.989587593535212,
        "Satellite Name": "Constellation 1 127",
        "Satellite Number": 127,
        "Semi-Major Axis(m)": 7083131.272910544,
        "Time(s)": 184
    },
    {
        "Altitude(m)": 716572.6930040591,
        "Argument of Periapsis(deg)": 0.01109038115540004,
        "Eccentricity": 0.0,
        "Inclination(deg)": 45.0,
        "Latitude(deg)": -41.99041294866331,
        "Longitude(deg)": -139.29598650867933,
        "Mean Anomaly(deg)": 289.4115109462314,
        "RAAN(deg)": 24.989531004369645,
        "Satellite Name": "Constellation 1 127",
        "Satellite Number": 127,
        "Semi-Major Axis(m)": 7083131.272910544,
        "Time(s)": 185
    },
    {
        "Altitude(m)": 716564.7541367018,
        "Argument of Periapsis(deg)": 0.011150329161645444,
        "Eccentricity": 0.0,
        "Inclination(deg)": 45.0,
        "Latitude(deg)": -41.97126800968039,
        "Longitude(deg)": -139.2229782733725,
        "Mean Anomaly(deg)": 289.4722120864812,
        "RAAN(deg)": 24.989474415204075,
        "Satellite Name": "Constellation 1 127",
        "Satellite Number": 127,
        "Semi-Major Axis(m)": 7083131.272910544,
        "Time(s)": 186
    },
    {
        "Altitude(m)": 716556.7937064929,
        "Argument of Periapsis(deg)": 0.01121027716789085,
        "Eccentricity": 0.0,
        "Inclination(deg)": 45.0,
        "Latitude(deg)": -41.95207123563329,
        "Longitude(deg)": -139.1500161574446,
        "Mean Anomaly(deg)": 289.53291322673107,
        "RAAN(deg)": 24.98941782603851,
        "Satellite Name": "Constellation 1 127",
        "Satellite Number": 127,
        "Semi-Major Axis(m)": 7083131.272910544,
        "Time(s)": 187
    },
    {
        "Altitude(m)": 716548.8117426179,
        "Argument of Periapsis(deg)": 0.011270225174136258,
        "Eccentricity": 0.0,
        "Inclination(deg)": 45.0,
        "Latitude(deg)": -41.93282269155975,
        "Longitude(deg)": -139.0771002265125,
        "Mean Anomaly(deg)": 289.593614366981,
        "RAAN(deg)": 24.989361236872934,
        "Satellite Name": "Constellation 1 127",
        "Satellite Number": 127,
        "Semi-Major Axis(m)": 7083131.272910544,
        "Time(s)": 188
    },
    {
        "Altitude(m)": 716540.808274323,
        "Argument of Periapsis(deg)": 0.011330173180381662,
        "Eccentricity": 0.0,
        "Inclination(deg)": 45.0,
        "Latitude(deg)": -41.91352244257174,
        "Longitude(deg)": -139.00423054565204,
        "Mean Anomaly(deg)": 289.65431550723093,
        "RAAN(deg)": 24.989304647707364,
        "Satellite Name": "Constellation 1 127",
        "Satellite Number": 127,
        "Semi-Major Axis(m)": 7083131.272910544,
        "Time(s)": 189
    }
]